{
  "norad_id": 68616,
  "name": "STARLINK-37152",
  "history": [
    {
      "epoch": "2026-04-16T22:10:39.713664Z",
      "apogee_km": 328.84025144598945,
      "perigee_km": 327.2608101587348,
      "latitude_deg": -1.1700746474403229e-05,
      "longitude_deg": 126.82682383094412,
      "height_km": 330.9748301347216,
      "semi_major_axis_km": 6706.187530802362,
      "eccentricity": 0.00011776,
      "inclination_deg": 97.2853,
      "raan_deg": 304.5571,
      "arg_perigee_deg": 71.562,
      "mean_anomaly_deg": 288.5776,
      "mean_motion_rev_day": 15.8084475
    }
  ]
}