STARLINK-37152          
1 68616U 26073Q   26106.92407076  .00150223  00000+0  77057-3 0  9996
2 68616  97.2853 304.5571 0001177  71.5620 288.5776 15.80844750  1573
